{
    "links": {
        "self": "http://www.neowsapp.com/rest/v1/neo/3644770?api_key=iIulBulltgU6a56xZRHN4H3l9WmuAYTsLGpBGhQ2"
    },
    "id": "3644770",
    "neo_reference_id": "3644770",
    "name": "(2013 NM8)",
    "designation": "2013 NM8",
    "nasa_jpl_url": "http://ssd.jpl.nasa.gov/sbdb.cgi?sstr=3644770",
    "absolute_magnitude_h": 22.6,
    "estimated_diameter": {
        "kilometers": {
            "estimated_diameter_min": 0.0802703167,
            "estimated_diameter_max": 0.1794898848
        },
        "meters": {
            "estimated_diameter_min": 80.2703167283,
            "estimated_diameter_max": 179.4898847799
        },
        "miles": {
            "estimated_diameter_min": 0.049877647,
            "estimated_diameter_max": 0.1115298092
        },
        "feet": {
            "estimated_diameter_min": 263.3540659348,
            "estimated_diameter_max": 588.8775935812
        }
    },
    "is_potentially_hazardous_asteroid": false,
    "close_approach_data": [
        {
            "close_approach_date": "2013-06-28",
            "close_approach_date_full": "2013-Jun-28 04:24",
            "epoch_date_close_approach": 1372393440000,
            "relative_velocity": {
                "kilometers_per_second": "5.57342577",
                "kilometers_per_hour": "20064.3327719963",
                "miles_per_hour": "12467.1961049107"
            },
            "miss_distance": {
                "astronomical": "0.2484584727",
                "lunar": "96.6503458803",
                "kilometers": "37168858.299373149",
                "miles": "23095657.5873574962"
            },
            "orbiting_body": "Earth"
        }
    ],
    "orbital_data": {
        "orbit_id": "6",
        "orbit_determination_date": "2017-04-06 08:45:27",
        "first_observation_date": "2013-07-01",
        "last_observation_date": "2013-07-08",
        "data_arc_in_days": 7,
        "observations_used": 11,
        "orbit_uncertainty": "8",
        "minimum_orbit_intersection": ".202109",
        "jupiter_tisserand_invariant": "3.575",
        "epoch_osculation": "2456477.5",
        "eccentricity": ".4314007629117107",
        "semi_major_axis": "2.143280180210659",
        "inclination": "7.852718618212198",
        "ascending_node_longitude": "96.3648583478809",
        "orbital_period": "1146.085053268003",
        "perihelion_distance": "1.218667475334232",
        "perihelion_argument": "182.2360432320172",
        "aphelion_distance": "3.067892885087086",
        "perihelion_time": "2456482.223962960741",
        "mean_anomaly": "358.5161427059733",
        "mean_motion": ".3141128129831886",
        "equinox": "J2000",
        "orbit_class": {
            "orbit_class_type": "AMO",
            "orbit_class_description": "Near-Earth asteroid orbits similar to that of 1221 Amor",
            "orbit_class_range": "1.017 AU < q (perihelion) < 1.3 AU"
        }
    },
    "is_sentry_object": false
}